<osm version="0.6" generator="geojsontoosm"><node id="-1" lat="45.1873055340049" lon="5.73101591071364"><tag k="amenity" v="vending_machine"/><tag k="vending" v="parking_tickets"/><tag k="source" v="data.metropolegrenoble.fr 11-01-2018"/><tag k="ref" v="787"/><tag k="note" v="tarif : vert; model: Stelio_Parkeon"/></node><node id="-2" lat="45.1873671971573" lon="5.73044181099783"><tag k="amenity" v="vending_machine"/><tag k="vending" v="parking_tickets"/><tag k="source" v="data.metropolegrenoble.fr 11-01-2018"/><tag k="ref" v="642"/><tag k="note" v="tarif : orange; model: Stelio_Parkeon"/></node><node id="-3" lat="45.1889112432251" lon="5.73400315197686"><tag k="amenity" v="vending_machine"/><tag k="vending" v="parking_tickets"/><tag k="source" v="data.metropolegrenoble.fr 11-01-2018"/><tag k="ref" v="815"/><tag k="note" v="tarif : vert; model: Stelio_Parkeon"/></node><node id="-4" lat="45.1894533803872" lon="5.72957061408349"><tag k="amenity" v="vending_machine"/><tag k="vending" v="parking_tickets"/><tag k="source" v="data.metropolegrenoble.fr 11-01-2018"/><tag k="ref" v="730"/><tag k="note" v="tarif : orange; model: Stelio_Parkeon"/></node><node id="-5" lat="45.1890431124248" lon="5.73305147519599"><tag k="amenity" v="vending_machine"/><tag k="vending" v="parking_tickets"/><tag k="source" v="data.metropolegrenoble.fr 11-01-2018"/><tag k="ref" v="662"/><tag k="note" v="tarif : orange; model: Stelio_Parkeon"/></node><node id="-6" lat="45.1861324010934" lon="5.72979100536274"><tag k="amenity" v="vending_machine"/><tag k="vending" v="parking_tickets"/><tag k="source" v="data.metropolegrenoble.fr 11-01-2018"/><tag k="ref" v="638"/><tag k="note" v="tarif : orange; model: Stelio_Parkeon"/></node><node id="-7" lat="45.1858883622539" lon="5.72969384825744"><tag k="amenity" v="vending_machine"/><tag k="vending" v="parking_tickets"/><tag k="source" v="data.metropolegrenoble.fr 11-01-2018"/><tag k="ref" v="635"/><tag k="note" v="tarif : orange; model: Stelio_Parkeon"/></node><node id="-8" lat="45.1834211167615" lon="5.70396054645917"><tag k="amenity" v="vending_machine"/><tag k="vending" v="parking_tickets"/><tag k="source" v="data.metropolegrenoble.fr 11-01-2018"/><tag k="ref" v="1074"/><tag k="note" v="tarif : vert; model: DG4_Parkeon"/></node></osm>